COSMOS 2242             
1 22626U 93024A   26064.62416766  .00002493  00000+0  21662-3 0  9999
2 22626  82.5151 270.6064 0015445 323.5049  36.5119 14.96528854779787
SL-16 R/B               
1 22803U 93059B   26064.24202987 -.00000059  00000+0 -54664-5 0  9998
2 22803  70.9922  20.5044 0018747 222.9016 137.0647 14.17232284678902
ARIANE 40 R/B           
1 22830U 93061H   26064.43891083  .00000294  00000+0  12360-3 0  9997
2 22830  98.4924 133.4103 0009616 299.1790  60.8432 14.32858496693491
COSMOS 2278             
1 23087U 94023A   26064.56646590  .00000270  00000+0  16553-3 0  9998
2 23087  71.0546 183.7226 0007755  21.5492 338.5955 14.14376946644222
SL-16 R/B               
1 23088U 94023B   26064.47339708 -.00000153  00000+0 -54485-4 0  9998
2 23088  70.9986  79.7426 0005672 289.7929  70.2581 14.15013187645495
SL-16 R/B               
1 23343U 94074B   26064.60974514  .00000696  00000+0  99880-4 0  9991
2 23343  97.7114  95.5927 0005498 226.1023 247.0429 14.79402779686643
SL-16 R/B               
1 23405U 94077B   26064.24466605 -.00000217  00000+0 -86331-4 0  9998
2 23405  70.9851   1.8393 0003348 218.5508 141.5376 14.15561763615601
ARIANE 40+ R/B          
1 23561U 95021B   26064.15292925  .00000380  00000+0  13507-3 0  9996
2 23561  98.4506 135.6969 0007450 148.6965 232.6799 14.39768547618596
SL-16 R/B               
1 23705U 95058B   26064.60478737  .00000112  00000+0  81761-4 0  9994
2 23705  71.0213 188.8302 0010973 132.9991 227.2054 14.15493115567270
SL-16 R/B               
1 24298U 96051B   26064.56261981  .00000121  00000+0  91971-4 0  9996
2 24298  70.7598 183.9734 0015440 154.2580 205.9312 14.12414468521068
ORBVIEW 2 (SEASTAR)     
1 24883U 97037A   26064.44486965  .00000467  00000+0  17872-3 0  9999
2 24883  98.8558 228.6443 0003155  80.3835 279.7706 14.35491436507864
SL-16 R/B               
1 25400U 98043G   26064.59196085  .00000094  00000+0  58289-4 0  9994
2 25400  98.8250  17.9266 0010407  31.7253 328.4552 14.26048600438408
SL-16 R/B               
1 25407U 98045B   26064.61772395 -.00000115  00000+0 -34075-4 0  9993
2 25407  71.0114 190.1363 0006498  14.1992 345.9313 14.16189131426522
ISS (ZARYA)             
1 25544U 98067A   26064.57663400  .00008552  00000+0  16617-3 0  9992
2 25544  51.6316  92.6910 0008154 159.9772 200.1537 15.48460413555693
CZ-4B R/B               
1 25732U 99025C   26064.58485801  .00000081  00000+0  60125-4 0  9997
2 25732  98.6635 108.9636 0036973 358.4886 119.9081 14.18264525387589
OKEAN-O                 
1 25860U 99039A   26064.59636188  .00000954  00000+0  13199-3 0  9998
2 25860  97.9450 124.5293 0001385  70.4826 289.6536 14.80328064433787
SL-16 R/B               
1 25861U 99039B   26064.58008194  .00000843  00000+0  11373-3 0  9997
2 25861  97.9973 123.6827 0013425 270.8436  89.1238 14.81725365436255
