[{"OBJECT_NAME":"COSMOS 2242","OBJECT_ID":"1993-024A","EPOCH":"2026-03-05T14:58:48.085824","MEAN_MOTION":14.96528854,"ECCENTRICITY":0.00154458,"INCLINATION":82.5151,"RA_OF_ASC_NODE":270.6064,"ARG_OF_PERICENTER":323.5049,"MEAN_ANOMALY":36.5119,"EPHEMERIS_TYPE":0,"CLASSIFICATION_TYPE":"U","NORAD_CAT_ID":22626,"ELEMENT_SET_NO":999,"REV_AT_EPOCH":77978,"BSTAR":0.00021661979,"MEAN_MOTION_DOT":2.493e-5,"MEAN_MOTION_DDOT":0},{"OBJECT_NAME":"SL-16 R/B","OBJECT_ID":"1993-059B","EPOCH":"2026-03-05T05:48:31.380768","MEAN_MOTION":14.17232284,"ECCENTRICITY":0.00187476,"INCLINATION":70.9922,"RA_OF_ASC_NODE":20.5044,"ARG_OF_PERICENTER":222.9016,"MEAN_ANOMALY":137.0647,"EPHEMERIS_TYPE":0,"CLASSIFICATION_TYPE":"U","NORAD_CAT_ID":22803,"ELEMENT_SET_NO":999,"REV_AT_EPOCH":67890,"BSTAR":-5.466381e-6,"MEAN_MOTION_DOT":-5.9e-7,"MEAN_MOTION_DDOT":0},{"OBJECT_NAME":"ARIANE 40 R/B","OBJECT_ID":"1993-061H","EPOCH":"2026-03-05T10:32:01.895712","MEAN_MOTION":14.32858496,"ECCENTRICITY":0.0009616,"INCLINATION":98.4924,"RA_OF_ASC_NODE":133.4103,"ARG_OF_PERICENTER":299.179,"MEAN_ANOMALY":60.8432,"EPHEMERIS_TYPE":0,"CLASSIFICATION_TYPE":"U","NORAD_CAT_ID":22830,"ELEMENT_SET_NO":999,"REV_AT_EPOCH":69349,"BSTAR":0.00012359517,"MEAN_MOTION_DOT":2.94e-6,"MEAN_MOTION_DDOT":0},{"OBJECT_NAME":"COSMOS 2278","OBJECT_ID":"1994-023A","EPOCH":"2026-03-05T13:35:42.653760","MEAN_MOTION":14.14376946,"ECCENTRICITY":0.00077555,"INCLINATION":71.0546,"RA_OF_ASC_NODE":183.7226,"ARG_OF_PERICENTER":21.5492,"MEAN_ANOMALY":338.5955,"EPHEMERIS_TYPE":0,"CLASSIFICATION_TYPE":"U","NORAD_CAT_ID":23087,"ELEMENT_SET_NO":999,"REV_AT_EPOCH":64422,"BSTAR":0.00016553439,"MEAN_MOTION_DOT":2.7e-6,"MEAN_MOTION_DDOT":0},{"OBJECT_NAME":"SL-16 R/B","OBJECT_ID":"1994-023B","EPOCH":"2026-03-05T11:21:41.507712","MEAN_MOTION":14.15013187,"ECCENTRICITY":0.00056725,"INCLINATION":70.9986,"RA_OF_ASC_NODE":79.7426,"ARG_OF_PERICENTER":289.7929,"MEAN_ANOMALY":70.2581,"EPHEMERIS_TYPE":0,"CLASSIFICATION_TYPE":"U","NORAD_CAT_ID":23088,"ELEMENT_SET_NO":999,"REV_AT_EPOCH":64549,"BSTAR":-5.4485274e-5,"MEAN_MOTION_DOT":-1.53e-6,"MEAN_MOTION_DDOT":0},{"OBJECT_NAME":"SL-16 R/B","OBJECT_ID":"1994-074B","EPOCH":"2026-03-05T14:38:01.980096","MEAN_MOTION":14.79402779,"ECCENTRICITY":0.00054985,"INCLINATION":97.7114,"RA_OF_ASC_NODE":95.5927,"ARG_OF_PERICENTER":226.1023,"MEAN_ANOMALY":247.0429,"EPHEMERIS_TYPE":0,"CLASSIFICATION_TYPE":"U","NORAD_CAT_ID":23343,"ELEMENT_SET_NO":999,"REV_AT_EPOCH":68664,"BSTAR":9.9880015e-5,"MEAN_MOTION_DOT":6.96e-6,"MEAN_MOTION_DDOT":0},{"OBJECT_NAME":"SL-16 R/B","OBJECT_ID":"1994-077B","EPOCH":"2026-03-05T05:52:19.146720","MEAN_MOTION":14.15561763,"ECCENTRICITY":0.00033485,"INCLINATION":70.9851,"RA_OF_ASC_NODE":1.8393,"ARG_OF_PERICENTER":218.5508,"MEAN_ANOMALY":141.5376,"EPHEMERIS_TYPE":0,"CLASSIFICATION_TYPE":"U","NORAD_CAT_ID":23405,"ELEMENT_SET_NO":999,"REV_AT_EPOCH":61560,"BSTAR":-8.6331433e-5,"MEAN_MOTION_DOT":-2.17e-6,"MEAN_MOTION_DDOT":0},{"OBJECT_NAME":"ARIANE 40+ R/B","OBJECT_ID":"1995-021B","EPOCH":"2026-03-05T03:40:13.087200","MEAN_MOTION":14.39768547,"ECCENTRICITY":0.00074501,"INCLINATION":98.4506,"RA_OF_ASC_NODE":135.6969,"ARG_OF_PERICENTER":148.6965,"MEAN_ANOMALY":232.6799,"EPHEMERIS_TYPE":0,"CLASSIFICATION_TYPE":"U","NORAD_CAT_ID":23561,"ELEMENT_SET_NO":999,"REV_AT_EPOCH":61859,"BSTAR":0.00013507174,"MEAN_MOTION_DOT":3.8e-6,"MEAN_MOTION_DDOT":0},{"OBJECT_NAME":"SL-16 R/B","OBJECT_ID":"1995-058B","EPOCH":"2026-03-05T14:30:53.628768","MEAN_MOTION":14.15493115,"ECCENTRICITY":0.00109736,"INCLINATION":71.0213,"RA_OF_ASC_NODE":188.8302,"ARG_OF_PERICENTER":132.9991,"MEAN_ANOMALY":227.2054,"EPHEMERIS_TYPE":0,"CLASSIFICATION_TYPE":"U","NORAD_CAT_ID":23705,"ELEMENT_SET_NO":999,"REV_AT_EPOCH":56727,"BSTAR":8.176118e-5,"MEAN_MOTION_DOT":1.12e-6,"MEAN_MOTION_DDOT":0},{"OBJECT_NAME":"SL-16 R/B","OBJECT_ID":"1996-051B","EPOCH":"2026-03-05T13:30:10.351584","MEAN_MOTION":14.12414468,"ECCENTRICITY":0.00154402,"INCLINATION":70.7598,"RA_OF_ASC_NODE":183.9734,"ARG_OF_PERICENTER":154.258,"MEAN_ANOMALY":205.9312,"EPHEMERIS_TYPE":0,"CLASSIFICATION_TYPE":"U","NORAD_CAT_ID":24298,"ELEMENT_SET_NO":999,"REV_AT_EPOCH":52106,"BSTAR":9.1971234e-5,"MEAN_MOTION_DOT":1.21e-6,"MEAN_MOTION_DDOT":0},{"OBJECT_NAME":"ORBVIEW 2 (SEASTAR)","OBJECT_ID":"1997-037A","EPOCH":"2026-03-05T10:40:36.737760","MEAN_MOTION":14.35491436,"ECCENTRICITY":0.00031559,"INCLINATION":98.8558,"RA_OF_ASC_NODE":228.6443,"ARG_OF_PERICENTER":80.3835,"MEAN_ANOMALY":279.7706,"EPHEMERIS_TYPE":0,"CLASSIFICATION_TYPE":"U","NORAD_CAT_ID":24883,"ELEMENT_SET_NO":999,"REV_AT_EPOCH":50786,"BSTAR":0.00017872285,"MEAN_MOTION_DOT":4.67e-6,"MEAN_MOTION_DDOT":0},{"OBJECT_NAME":"SL-16 R/B","OBJECT_ID":"1998-043G","EPOCH":"2026-03-05T14:12:25.417440","MEAN_MOTION":14.260486,"ECCENTRICITY":0.00104073,"INCLINATION":98.825,"RA_OF_ASC_NODE":17.9266,"ARG_OF_PERICENTER":31.7253,"MEAN_ANOMALY":328.4552,"EPHEMERIS_TYPE":0,"CLASSIFICATION_TYPE":"U","NORAD_CAT_ID":25400,"ELEMENT_SET_NO":999,"REV_AT_EPOCH":43840,"BSTAR":5.8288682e-5,"MEAN_MOTION_DOT":9.4e-7,"MEAN_MOTION_DDOT":0},{"OBJECT_NAME":"SL-16 R/B","OBJECT_ID":"1998-045B","EPOCH":"2026-03-05T14:49:31.349280","MEAN_MOTION":14.16189131,"ECCENTRICITY":0.00064984,"INCLINATION":71.0114,"RA_OF_ASC_NODE":190.1363,"ARG_OF_PERICENTER":14.1992,"MEAN_ANOMALY":345.9313,"EPHEMERIS_TYPE":0,"CLASSIFICATION_TYPE":"U","NORAD_CAT_ID":25407,"ELEMENT_SET_NO":999,"REV_AT_EPOCH":42652,"BSTAR":-3.4074561e-5,"MEAN_MOTION_DOT":-1.15e-6,"MEAN_MOTION_DDOT":0},{"OBJECT_NAME":"ISS (ZARYA)","OBJECT_ID":"1998-067A","EPOCH":"2026-03-05T13:50:21.177600","MEAN_MOTION":15.48460413,"ECCENTRICITY":0.00081549,"INCLINATION":51.6316,"RA_OF_ASC_NODE":92.691,"ARG_OF_PERICENTER":159.9772,"MEAN_ANOMALY":200.1537,"EPHEMERIS_TYPE":0,"CLASSIFICATION_TYPE":"U","NORAD_CAT_ID":25544,"ELEMENT_SET_NO":999,"REV_AT_EPOCH":55569,"BSTAR":0.00016617363,"MEAN_MOTION_DOT":8.552e-5,"MEAN_MOTION_DDOT":0},{"OBJECT_NAME":"CZ-4B R/B","OBJECT_ID":"1999-025C","EPOCH":"2026-03-05T14:02:11.732064","MEAN_MOTION":14.18264525,"ECCENTRICITY":0.00369735,"INCLINATION":98.6635,"RA_OF_ASC_NODE":108.9636,"ARG_OF_PERICENTER":358.4886,"MEAN_ANOMALY":119.9081,"EPHEMERIS_TYPE":0,"CLASSIFICATION_TYPE":"U","NORAD_CAT_ID":25732,"ELEMENT_SET_NO":999,"REV_AT_EPOCH":38758,"BSTAR":6.012487e-5,"MEAN_MOTION_DOT":8.1e-7,"MEAN_MOTION_DDOT":0},{"OBJECT_NAME":"OKEAN-O","OBJECT_ID":"1999-039A","EPOCH":"2026-03-05T14:18:45.666432","MEAN_MOTION":14.80328064,"ECCENTRICITY":0.00013854,"INCLINATION":97.945,"RA_OF_ASC_NODE":124.5293,"ARG_OF_PERICENTER":70.4826,"MEAN_ANOMALY":289.6536,"EPHEMERIS_TYPE":0,"CLASSIFICATION_TYPE":"U","NORAD_CAT_ID":25860,"ELEMENT_SET_NO":999,"REV_AT_EPOCH":43378,"BSTAR":0.00013199208,"MEAN_MOTION_DOT":9.54e-6,"MEAN_MOTION_DDOT":0},{"OBJECT_NAME":"SL-16 R/B","OBJECT_ID":"1999-039B","EPOCH":"2026-03-05T13:55:19.079616","MEAN_MOTION":14.81725365,"ECCENTRICITY":0.00134252,"INCLINATION":97.9973,"RA_OF_ASC_NODE":123.6827,"ARG_OF_PERICENTER":270.8436,"MEAN_ANOMALY":89.1238,"EPHEMERIS_TYPE":0,"CLASSIFICATION_TYPE":"U","NORAD_CAT_ID":25861,"ELEMENT_SET_NO":999,"REV_AT_EPOCH":43625,"BSTAR":0.00011373224,"MEAN_MOTION_DOT":8.43e-6,"MEAN_MOTION_DDOT":0}]
